OBJECT_NAME,OBJECT_ID,EPOCH,MEAN_MOTION,ECCENTRICITY,INCLINATION,RA_OF_ASC_NODE,ARG_OF_PERICENTER,MEAN_ANOMALY,EPHEMERIS_TYPE,CLASSIFICATION_TYPE,NORAD_CAT_ID,ELEMENT_SET_NO,REV_AT_EPOCH,BSTAR,MEAN_MOTION_DOT,MEAN_MOTION_DDOT
S-NET C,2018-014K,2026-07-16T07:21:42.297984,15.16883754,.0008049,97.5365,102.1976,265.5764,94.4549,0,U,43189,999,46172,.11698E-3,.2237E-4,0
PAZ,2018-020A,2026-07-16T19:31:35.813280,15.19146327,.0001706,97.4457,204.7786,87.9942,272.1488,0,U,43215,999,46550,.46838E-4,.917E-5,0
GOES 17,2018-022A,2026-07-16T19:44:23.350272,1.00270914,.0000571,1.0113,85.2320,74.7447,341.2705,0,U,43226,999,3072,0,-.193E-5,0
LKW-4,2018-025A,2026-07-16T12:29:38.200992,15.64607766,.0003384,97.6353,10.7486,180.7875,179.3379,0,U,43236,999,46461,.32678E-3,.315E-3,0
ZHUHAI-1 OVS-02,2018-040B,2026-07-16T21:15:33.786144,15.25389977,.000519,97.0381,213.3599,131.3827,228.7858,0,U,43440,999,45724,.14966E-3,.3712E-4,0
ZHUHAI-1 OHS-02,2018-040C,2026-07-16T20:29:38.585184,15.26281713,.001129,97.0358,220.2989,120.3192,239.9166,0,U,43441,999,11880,.16203E-3,.4141E-4,0
GAOFEN-6,2018-048A,2026-07-16T21:22:46.574976,14.76385169,.0012115,98.0957,260.5965,76.6754,283.5805,0,U,43484,999,43777,.63124E-4,.386E-5,0
LUOJIA-1 01,2018-048B,2026-07-16T20:13:32.424096,14.87385256,.0009668,97.8100,275.5545,32.7991,327.3824,0,U,43485,999,43862,.1535E-3,.1334E-4,0
PAKTES 1A,2018-056A,2026-07-16T20:09:16.153920,14.99210139,.0019764,98.1290,355.5915,15.0390,345.1415,0,U,43529,999,43636,.12716E-3,.1489E-4,0
PRSS-1,2018-056B,2026-07-16T19:55:04.404576,14.82031552,.0001293,97.7809,264.8773,85.9015,274.2346,0,U,43530,999,43282,.91757E-4,.677E-5,0
HAIYANG-1C,2018-068A,2026-07-16T19:49:13.683648,14.34186352,.0011103,98.5184,269.7037,13.7116,346.4368,0,U,43609,999,41133,-.1641E-4,-.9E-6,0
SSTL S1-4,2018-071A,2026-07-16T20:22:41.185056,14.96204859,.000237,97.4982,68.2229,95.7258,264.4234,0,U,43618,999,42737,.46038E-4,.465E-5,0
HAIYANG-2B,2018-081A,2026-07-16T19:57:07.732800,13.79306899,.000097,99.3284,206.1406,145.4783,214.6432,0,U,43655,999,38901,.11996E-3,.79E-6,0
CFOSAT,2018-083A,2026-07-15T22:18:10.173888,15.16538301,.000183,97.3616,200.6163,75.6723,284.4713,0,U,43662,999,42679,.90896E-4,.1708E-4,0
TEN-KOH,2018-084G,2026-07-16T11:35:56.421024,15.03050581,.0009811,98.0762,31.0792,26.6983,333.4744,0,U,43677,999,42056,.11998E-3,.1551E-4,0
DIWATA-2B,2018-084H,2026-07-16T20:16:20.886816,15.00567033,.0012743,98.1211,35.3517,79.3349,280.9308,0,U,43678,999,42066,.87453E-4,.1039E-4,0
STARS-AO,2018-084J,2026-07-16T13:17:46.663584,15.17353335,.0003546,98.0470,53.3377,78.1495,282.0134,0,U,43679,999,42192,.16833E-3,.3284E-4,0
AUTCUBE 2,2018-084K,2026-07-16T12:23:46.578048,15.10270898,.0007681,98.0687,45.2468,309.5924,50.4625,0,U,43681,999,42135,.12867E-3,.2035E-4,0
METOP-C,2018-087A,2026-07-15T13:47:48.761088,14.21519167,.0002216,98.6630,255.6574,93.2289,266.9142,0,U,43689,999,39886,.44045E-4,.53E-6,0
ES'HAIL 2,2018-090A,2026-07-16T19:37:38.580960,1.00271843,.0002282,0.0155,59.1855,99.7063,95.9377,0,U,43700,999,2797,0,.134E-5,0
MOHAMMED VI-B,2018-095A,2026-07-16T20:20:59.201088,14.77083253,.0001767,97.9550,269.7623,91.7524,268.3889,0,U,43717,999,41256,.67438E-4,.425E-5,0
HYSIS,2018-096A,2026-07-16T20:25:36.386976,14.78670460,.0001816,97.9829,264.3643,82.0481,278.0936,0,U,43719,999,41180,.74548E-5,.3E-7,0
COSMOS 2530 (RODNIK-S 16),2018-097A,2026-07-16T20:07:47.555904,12.42882534,.0018917,82.5115,203.8780,335.2983,24.7189,0,U,43751,999,34597,.99674E-3,.148E-5,0
COSMOS 2531 (RODNIK-S 17),2018-097B,2026-07-16T20:38:48.745824,12.42913624,.0016527,82.5160,204.9331,355.3787,4.7138,0,U,43752,999,34599,.50916E-3,.8E-6,0
COSMOS 2532 (RODNIK-S 18),2018-097C,2026-07-16T21:19:36.799968,12.42911226,.0017973,82.5105,203.6880,357.1282,2.9691,0,U,43753,999,34596,.90256E-3,.135E-5,0
MINXSS-2,2018-099A,2026-07-16T04:22:36.077664,15.48867095,.0008543,97.4528,274.3566,157.2726,202.8905,0,U,43758,999,41861,.43069E-3,.23169E-3,0
SIRION PATHFINDER-2,2018-099B,2026-07-16T15:29:53.736576,15.14783275,.0008606,97.4236,246.0049,186.2645,173.8481,0,U,43759,999,41708,.10542E-3,.1892E-4,0
AISTECHSAT 2,2018-099L,2026-07-16T16:00:43.655616,15.15723103,.0004826,97.4275,245.0581,175.6528,184.4748,0,U,43768,999,41674,.15836E-3,.2953E-4,0
FOX-1CLIFF (AO-95),2018-099N,2026-07-16T15:09:10.327392,15.27291830,.0007367,97.4366,257.7786,233.9114,126.1444,0,U,43770,999,41771,.23706E-3,.6267E-4,0
RANGE-A,2018-099R,2026-07-16T14:21:56.632032,15.13614526,.0008791,97.3949,239.3190,239.1276,120.9091,0,U,43773,999,41694,.14384E-3,.2521E-4,0
